COSMOS 2251 DEB         
1 34638U 93036XK  17345.94271359  .00001353  00000-0  33252-3 0  9995
2 34638  74.0444 156.6318 0011163 220.1771 292.8927 14.53266268462241
